HAWK-5A                 
1 52757U 22057AB  26162.43187200  .00016429  00000+0  28251-3 0  9996
2 52757  97.6591 320.9098 0005885  96.1770 264.0152 15.51184795225456
HAWK-6B                 
1 55324U 23011A   26161.95324857  .00004111  00000+0  17995-3 0  9995
2 55324  40.4991  28.4311 0003501 327.0265  33.0326 15.22872392186891
HAWK-6C                 
1 55326U 23011C   26160.37868959  .00004206  00000+0  18395-3 0  9998
2 55326  40.4982  34.4522 0004314 308.3612  51.6810 15.22867772186660
HAWK-6A                 
1 55327U 23011D   26162.34610284  .00004031  00000+0  17656-3 0  9999
2 55327  40.4992  24.6026 0003768 316.5498  43.5014 15.22877524186962
HAWK-7A                 
1 56191U 23054P   26162.60704069  .00001536  00000+0  60095-4 0  9993
2 56191  97.2702  50.0862 0004603  67.6281 292.5446 15.27298132176179
HAWK-7B                 
1 56193U 23054R   26162.60695036  .00005283  00000+0  20018-3 0  9991
2 56193  97.2742  48.3484 0003955  79.3529 280.8156 15.27305993176171
HAWK-7C                 
1 56200U 23054Y   26162.60684442  .00005199  00000+0  19706-3 0  9997
2 56200  97.2718  49.1187 0003984  71.4778 288.6894 15.27302585176172
